ORBCOMM FM37            
1 33064U 08031E   24343.57931330  .00003757  00000+0  53863-3 0  9994
2 33064  48.4377 168.9337 0006324 268.9497 133.1355 14.78389701885839
ORBCOMM FM40            
1 33065U 08031F   24343.48706170  .00005366  00000+0  72462-3 0  9991
2 33065  48.4399 156.3448 0007637 278.8324 109.7407 14.80242230885896
VESSELSAT 1             
1 37840U 11058C   24343.55591485  .00000514  00000+0  13591-3 0  9996
2 37840  19.9600 167.3356 0013576 249.6903 110.2042 14.11275649679344
ORBCOMM FM109           
1 40086U 14040A   24343.59676116  .00001590  00000+0  38183-3 0  9994
2 40086  47.0018 196.0134 0002161 170.7494 189.3432 14.57671581553251
ORBCOMM FM107           
1 40087U 14040B   24343.56617628  .00001723  00000+0  41132-3 0  9991
2 40087  47.0036 197.1974 0001227 153.1516 206.9433 14.57604014553320
ORBCOMM FM106           
1 40088U 14040C   24343.45712038  .00002945  00000+0  53400-3 0  9999
2 40088  47.0609  34.8865 0018441 262.8603  97.0190 14.68458905555435
ORBCOMM FM111           
1 40089U 14040D   24343.53676100  .00007180  00000+0  86335-3 0  9997
2 40089  47.0021 269.7291 0031147   1.0958 359.0001 14.84313479561882
ORBCOMM FM104           
1 40090U 14040E   24343.41775348  .00001648  00000+0  40803-3 0  9993
2 40090  47.0035 229.2545 0016312  53.0766 307.1611 14.56053197552814
